*******************************************************************************
Ephemeris / WWW_USER Mon Mar 10 14:46:37 2025 Pasadena, USA      / Horizons    
*******************************************************************************
Target body name: (2018 RC)                       {source: JPL#21}
Center body name: Earth (399)                     {source: DE441}
Center-site name: Gemini South Obs., Cerro Pachon
*******************************************************************************
Start time      : A.D. 2018-Aug-23 22:31:00.0000 UT      
Stop  time      : A.D. 2018-Aug-24 10:59:00.0000 UT      
Step-size       : 1 minutes
*******************************************************************************
Target pole/equ : undefined
Target radii    : undefined                                                    
Center geodetic : 289.2634, -30.2406227, 2.71233  {E-lon(deg),Lat(deg),Alt(km)}
Center cylindric: 289.2634,5517.21435,-3194.81213 {E-lon(deg),Dxy(km),Dz(km)}
Center pole/equ : ITRF93                          {East-longitude positive}
Center radii    : 6378.137, 6378.137, 6356.752 km {Equator_a, b, pole_c}       
Target primary  : Sun
Vis. interferer : MOON (R_eq= 1737.400) km        {source: DE441}
Rel. light bend : Sun                             {source: DE441}
Rel. lght bnd GM: 1.3271E+11 km^3/s^2                                          
Small-body perts: Yes                             {source: SB441-N16}
Atmos refraction: NO (AIRLESS)
RA format       : HMS
Time format     : CAL 
Calendar mode   : Mixed Julian/Gregorian
RTS-only print  : NO       
EOP file        : eop.250307.p250603                                           
EOP coverage    : DATA-BASED 1962-JAN-20 TO 2025-MAR-07. PREDICTS-> 2025-JUN-02
Units conversion: 1 au= 149597870.700 km, c= 299792.458 km/s, 1 day= 86400.0 s 
Table cut-offs 1: Elevation (-90.0deg=NO ),Airmass (>38.000=NO), Daylight (YES)
Table cut-offs 2: Solar elongation (  0.0,180.0=NO ),Local Hour Angle( 0.0=NO )
Table cut-offs 3: RA/DEC angular rate (     0.0=NO )                           
*******************************************************************************
Initial IAU76/J2000 heliocentric ecliptic osculating elements (au, days, deg.):
  EPOCH=  2458369.5 ! 2018-Sep-08.00 (TDB)         Residual RMS= .84866        
   EC= .2426621660028976   QR= .647471518312811    TP= 2458473.8617576878      
   OM= 346.8893436915528   W=  145.8737085184167   IN= 1.612045057594462       
  Equivalent ICRF heliocentric cartesian coordinates (au, au/d):
   X= 9.781363708094483E-01  Y=-2.377942828764822E-01  Z=-1.040448782093900E-01
  VX= 1.501011538102481E-03 VY= 1.393070215815854E-02 VZ= 6.509326736836346E-03
Asteroid physical parameters (km, seconds, rotational period in hours):        
   GM= n.a.                RAD= n.a.               ROTPER= .16548              
   H= 24.93                G= .150                 B-V= n.a.                   
                           ALBEDO= n.a.            STYP= n.a.                  
*******************************************************************************
 Date__(UT)__HR:MN     R.A._________(ICRF)_________DEC
******************************************************
$$SOE
 2018-Aug-24 00:34  m  01 31 22.539429 +00 25 21.73847
 2018-Aug-24 00:35  m  01 31 22.561940 +00 25 21.68209
 2018-Aug-24 00:36  m  01 31 22.584264 +00 25 21.62570
 2018-Aug-24 00:37  m  01 31 22.606402 +00 25 21.56931
 2018-Aug-24 00:38  m  01 31 22.628354 +00 25 21.51290
 2018-Aug-24 00:39  m  01 31 22.650118 +00 25 21.45650
 2018-Aug-24 00:40  m  01 31 22.671695 +00 25 21.40008
 2018-Aug-24 00:41  m  01 31 22.693084 +00 25 21.34366
 2018-Aug-24 00:42  m  01 31 22.714285 +00 25 21.28724
 2018-Aug-24 00:43  m  01 31 22.735297 +00 25 21.23080
 2018-Aug-24 00:44  m  01 31 22.756120 +00 25 21.17436
 2018-Aug-24 00:45  m  01 31 22.776754 +00 25 21.11792
 2018-Aug-24 00:46  m  01 31 22.797199 +00 25 21.06146
 2018-Aug-24 00:47  m  01 31 22.817454 +00 25 21.00500
 2018-Aug-24 00:48  m  01 31 22.837518 +00 25 20.94853
 2018-Aug-24 00:49  m  01 31 22.857392 +00 25 20.89206
 2018-Aug-24 00:50  m  01 31 22.877075 +00 25 20.83558
 2018-Aug-24 00:51  m  01 31 22.896567 +00 25 20.77909
 2018-Aug-24 00:52  m  01 31 22.915868 +00 25 20.72259
 2018-Aug-24 00:53  m  01 31 22.934977 +00 25 20.66608
 2018-Aug-24 00:54  m  01 31 22.953893 +00 25 20.60957
 2018-Aug-24 00:55  m  01 31 22.972618 +00 25 20.55305
 2018-Aug-24 00:56  m  01 31 22.991149 +00 25 20.49652
 2018-Aug-24 00:57  m  01 31 23.009488 +00 25 20.43998
 2018-Aug-24 00:58  m  01 31 23.027633 +00 25 20.38343
 2018-Aug-24 00:59  m  01 31 23.045585 +00 25 20.32688
 2018-Aug-24 01:00  m  01 31 23.063343 +00 25 20.27032
 2018-Aug-24 01:01  m  01 31 23.080907 +00 25 20.21374
 2018-Aug-24 01:02  m  01 31 23.098276 +00 25 20.15716
 2018-Aug-24 01:03  m  01 31 23.115451 +00 25 20.10057
 2018-Aug-24 01:04  m  01 31 23.132431 +00 25 20.04397
 2018-Aug-24 01:05  m  01 31 23.149216 +00 25 19.98737
 2018-Aug-24 01:06  m  01 31 23.165805 +00 25 19.93075
 2018-Aug-24 01:07  m  01 31 23.182198 +00 25 19.87412
 2018-Aug-24 01:08  m  01 31 23.198396 +00 25 19.81749
 2018-Aug-24 01:09  m  01 31 23.214397 +00 25 19.76084
 2018-Aug-24 01:10  m  01 31 23.230202 +00 25 19.70418
 2018-Aug-24 01:11  m  01 31 23.245810 +00 25 19.64752
 2018-Aug-24 01:12  m  01 31 23.261221 +00 25 19.59084
 2018-Aug-24 01:13  m  01 31 23.276435 +00 25 19.53416
 2018-Aug-24 01:14  m  01 31 23.291452 +00 25 19.47746
 2018-Aug-24 01:15  m  01 31 23.306271 +00 25 19.42075
 2018-Aug-24 01:16  m  01 31 23.320892 +00 25 19.36404
 2018-Aug-24 01:17  m  01 31 23.335315 +00 25 19.30731
 2018-Aug-24 01:18  m  01 31 23.349539 +00 25 19.25057
 2018-Aug-24 01:19  m  01 31 23.363566 +00 25 19.19382
 2018-Aug-24 01:20  m  01 31 23.377393 +00 25 19.13706
 2018-Aug-24 01:21  m  01 31 23.391022 +00 25 19.08029
 2018-Aug-24 01:22  m  01 31 23.404451 +00 25 19.02351
 2018-Aug-24 01:23  m  01 31 23.417681 +00 25 18.96671
 2018-Aug-24 01:24  m  01 31 23.430712 +00 25 18.90991
 2018-Aug-24 01:25  m  01 31 23.443542 +00 25 18.85309
 2018-Aug-24 01:26  m  01 31 23.456173 +00 25 18.79626
 2018-Aug-24 01:27  m  01 31 23.468604 +00 25 18.73942
 2018-Aug-24 01:28  m  01 31 23.480835 +00 25 18.68257
 2018-Aug-24 01:29  m  01 31 23.492865 +00 25 18.62570
 2018-Aug-24 01:30  m  01 31 23.504694 +00 25 18.56882
 2018-Aug-24 01:31  m  01 31 23.516323 +00 25 18.51194
 2018-Aug-24 01:32  m  01 31 23.527751 +00 25 18.45503
 2018-Aug-24 01:33  m  01 31 23.538977 +00 25 18.39812
 2018-Aug-24 01:34  m  01 31 23.550003 +00 25 18.34119
 2018-Aug-24 01:35  m  01 31 23.560827 +00 25 18.28425
 2018-Aug-24 01:36  m  01 31 23.571449 +00 25 18.22730
 2018-Aug-24 01:37  m  01 31 23.581870 +00 25 18.17033
 2018-Aug-24 01:38  m  01 31 23.592088 +00 25 18.11335
 2018-Aug-24 01:39  m  01 31 23.602105 +00 25 18.05636
 2018-Aug-24 01:40  m  01 31 23.611920 +00 25 17.99936
 2018-Aug-24 01:41  m  01 31 23.621533 +00 25 17.94234
 2018-Aug-24 01:42  m  01 31 23.630943 +00 25 17.88530
 2018-Aug-24 01:43  m  01 31 23.640150 +00 25 17.82826
 2018-Aug-24 01:44  m  01 31 23.649155 +00 25 17.77120
 2018-Aug-24 01:45  m  01 31 23.657957 +00 25 17.71412
 2018-Aug-24 01:46  m  01 31 23.666557 +00 25 17.65703
 2018-Aug-24 01:47  m  01 31 23.674953 +00 25 17.59993
 2018-Aug-24 01:48  m  01 31 23.683147 +00 25 17.54281
 2018-Aug-24 01:49  m  01 31 23.691137 +00 25 17.48568
 2018-Aug-24 01:50  m  01 31 23.698924 +00 25 17.42853
 2018-Aug-24 01:51  m  01 31 23.706507 +00 25 17.37137
 2018-Aug-24 01:52  m  01 31 23.713888 +00 25 17.31420
 2018-Aug-24 01:53  m  01 31 23.721064 +00 25 17.25700
 2018-Aug-24 01:54  m  01 31 23.728037 +00 25 17.19980
 2018-Aug-24 01:55  m  01 31 23.734807 +00 25 17.14258
 2018-Aug-24 01:56  m  01 31 23.741372 +00 25 17.08534
 2018-Aug-24 01:57  r  01 31 23.747734 +00 25 17.02809
 2018-Aug-24 01:58  m  01 31 23.753892 +00 25 16.97082
 2018-Aug-24 01:59  m  01 31 23.759846 +00 25 16.91354
 2018-Aug-24 02:00  m  01 31 23.765596 +00 25 16.85624
 2018-Aug-24 02:01  m  01 31 23.771142 +00 25 16.79892
 2018-Aug-24 02:02  m  01 31 23.776484 +00 25 16.74159
 2018-Aug-24 02:03  m  01 31 23.781622 +00 25 16.68424
 2018-Aug-24 02:04  m  01 31 23.786556 +00 25 16.62688
 2018-Aug-24 02:05  m  01 31 23.791285 +00 25 16.56949
 2018-Aug-24 02:06  m  01 31 23.795810 +00 25 16.51210
 2018-Aug-24 02:07  m  01 31 23.800131 +00 25 16.45468
 2018-Aug-24 02:08  m  01 31 23.804247 +00 25 16.39725
 2018-Aug-24 02:09  m  01 31 23.808159 +00 25 16.33980
 2018-Aug-24 02:10  m  01 31 23.811867 +00 25 16.28234
 2018-Aug-24 02:11  m  01 31 23.815371 +00 25 16.22486
 2018-Aug-24 02:12  m  01 31 23.818670 +00 25 16.16736
 2018-Aug-24 02:13  m  01 31 23.821764 +00 25 16.10984
 2018-Aug-24 02:14  m  01 31 23.824655 +00 25 16.05231
 2018-Aug-24 02:15  m  01 31 23.827340 +00 25 15.99475
 2018-Aug-24 02:16  m  01 31 23.829822 +00 25 15.93718
 2018-Aug-24 02:17  m  01 31 23.832099 +00 25 15.87960
 2018-Aug-24 02:18  m  01 31 23.834172 +00 25 15.82199
 2018-Aug-24 02:19  m  01 31 23.836040 +00 25 15.76437
 2018-Aug-24 02:20  m  01 31 23.837704 +00 25 15.70672
 2018-Aug-24 02:21  m  01 31 23.839164 +00 25 15.64906
 2018-Aug-24 02:22  m  01 31 23.840420 +00 25 15.59138
 2018-Aug-24 02:23  m  01 31 23.841471 +00 25 15.53369
 2018-Aug-24 02:24  m  01 31 23.842318 +00 25 15.47597
 2018-Aug-24 02:25  m  01 31 23.842961 +00 25 15.41823
 2018-Aug-24 02:26  m  01 31 23.843399 +00 25 15.36048
 2018-Aug-24 02:27  m  01 31 23.843634 +00 25 15.30271
 2018-Aug-24 02:28  m  01 31 23.843665 +00 25 15.24491
 2018-Aug-24 02:29  m  01 31 23.843491 +00 25 15.18710
 2018-Aug-24 02:30  m  01 31 23.843114 +00 25 15.12927
 2018-Aug-24 02:31  m  01 31 23.842533 +00 25 15.07142
 2018-Aug-24 02:32  m  01 31 23.841748 +00 25 15.01355
 2018-Aug-24 02:33  m  01 31 23.840760 +00 25 14.95566
 2018-Aug-24 02:34  m  01 31 23.839568 +00 25 14.89774
 2018-Aug-24 02:35  m  01 31 23.838172 +00 25 14.83981
 2018-Aug-24 02:36  m  01 31 23.836572 +00 25 14.78186
